[{"OBJECT_NAME":"YUNYAO-1 43","OBJECT_ID":"2025-059A","EPOCH":"2026-03-09T23:54:24.516576","MEAN_MOTION":15.10329109,"ECCENTRICITY":0.00157026,"INCLINATION":97.608,"RA_OF_ASC_NODE":250.9377,"ARG_OF_PERICENTER":132.1084,"MEAN_ANOMALY":228.1483,"EPHEMERIS_TYPE":0,"CLASSIFICATION_TYPE":"U","NORAD_CAT_ID":63344,"ELEMENT_SET_NO":999,"REV_AT_EPOCH":5332,"BSTAR":0.00032498885,"MEAN_MOTION_DOT":5.279e-5,"MEAN_MOTION_DDOT":0},{"OBJECT_NAME":"STARLINK-34995","OBJECT_ID":"2025-184N","EPOCH":"2026-03-09T17:16:54.649344","MEAN_MOTION":15.05656869,"ECCENTRICITY":0.00011576,"INCLINATION":97.6017,"RA_OF_ASC_NODE":122.6631,"ARG_OF_PERICENTER":146.3956,"MEAN_ANOMALY":213.7345,"EPHEMERIS_TYPE":0,"CLASSIFICATION_TYPE":"U","NORAD_CAT_ID":65285,"ELEMENT_SET_NO":999,"REV_AT_EPOCH":3130,"BSTAR":0.00017779563,"MEAN_MOTION_DOT":2.506e-5,"MEAN_MOTION_DDOT":0}]
